#aV2014 11 24  0  0  0.00000000     288 DD+AD WGS84 FIT  NGA
## 1820  86400.00000000   300.00000000 56985 0.0000000000000
+   32     1  2  3  4  5  6  7  8  9 10 11 12 13 14 15 16 17
+         18 19 20 21 22 23 24 25 26 27 28 29 30 31 32  0  0
+          0  0  0  0  0  0  0  0  0  0  0  0  0  0  0  0  0
+          0  0  0  0  0  0  0  0  0  0  0  0  0  0  0  0  0
+          0  0  0  0  0  0  0  0  0  0  0  0  0  0  0  0  0
++         2  2  2  2  2  2  2  2  2  2  2  2  2  2  2  2  2
++         2  2  2  2  2  2  2  2  2  2  2  2  2  2  2  0  0
++         0  0  0  0  0  0  0  0  0  0  0  0  0  0  0  0  0
++         0  0  0  0  0  0  0  0  0  0  0  0  0  0  0  0  0
++         0  0  0  0  0  0  0  0  0  0  0  0  0  0  0  0  0
%c cc cc ccc ccc cccc cccc cccc cccc ccccc ccccc ccccc ccccc
%c cc cc ccc ccc cccc cccc cccc cccc ccccc ccccc ccccc ccccc
%f  0.0000000  0.000000000  0.00000000000  0.000000000000000
%f  0.0000000  0.000000000  0.00000000000  0.000000000000000
%i    0    0    0    0      0      0      0      0         0
%i    0    0    0    0      0      0      0      0         0
/*      NGA, ST. LOUIS,MO.                                  
/*   EPHEMERIS COMPUTED FROM  1 DAYS OF DATA                
/*   EPOCHA SMOOTHER                                       
/* CCCCCCCCCCCCCCCCCCCCCCCCCCCCCCCCCCCCCCCCCCCCCCCCCCCCCCCCC
*  2014 11 24 19 50  0.00000000
P  1 -10513.469344  21215.048629 -11923.202240    -11.792747                    
V  1 -12727.462942   8523.321975  26657.908042      0.003682                    
P  2  21468.629286 -11716.397108  -9416.560727    532.013828                    
V  2  -6382.683109  11442.698790 -28323.824117      0.021934                    
P  3 -25611.955919  -8024.861714    547.206800     17.383316                    
V  3   1376.998494  -2240.890732  31545.182676      0.370630                    
P  4 -17753.348025  19466.051192  -2231.691375     -3.556791                    
V  4  -4377.240702   -932.915842  31256.432147     -0.005009                    
P  5  22109.850234  -4178.465434  14199.624792   -314.105587                    
V  5  16691.322585   7340.303877 -23566.890305      0.045294                    
P  6  18538.660016    712.115717 -19014.868698     15.351236                    
V  6 -16536.401097  17612.606357 -15491.110553      0.060289                    
P  7   1262.006131  17313.603198  20092.001903    415.897648                    
V  7 -19637.666455  16111.481044 -13058.671532      0.037027                    
P  8 -17640.256447  18247.730682   6743.484223     16.454240                    
V  8  -8062.537476   3233.751973 -31381.663024      0.002393                    
P  9   7433.684398  25429.867231   1798.823431    -12.670767                    
V  9  -2249.217125   2894.026379 -31622.247104     -0.079893                    
P 10  25056.693497   9343.826483  -2048.747005   -151.268129                    
V 10  -2938.409875   2257.023187 -30905.701153     -0.016393                    
P 11 -10555.189488  24212.783652  -2322.179667   -538.774349                    
V 11  -5587.828207   -213.463289  30051.588059     -0.027615                    
P 12   7639.207109 -12730.565348 -22084.050407    248.673160                    
V 12  26160.652965   9393.365230   3849.832810      0.028167                    
P 13  14710.849012   9353.039343  19867.160050    -63.559876                    
V 13   2090.716513  25458.654013 -13596.682617     -0.036314                    
P 14 -13983.537623 -15096.429365 -16641.872992    112.606391                    
V 14  -1762.102334 -21489.106398  20544.709515     -0.036039                    
P 15   4868.938259 -21619.060303  14339.295337   -216.491397                    
V 15   7846.836278  17026.236213  23209.682710     -0.022369                    
P 16 -22200.412816   2094.833620  14647.782743   -178.282051                    
V 16 -16947.813362  -7518.220618 -24165.299810      0.028823                    
P 17  13951.782756  16296.575712 -15534.446507   -139.670193                    
V 17   2128.580543  20068.813322  22344.681810     -0.024499                    
P 18 -15739.589847 -16065.516978  14834.324792    360.568928                    
V 18  18014.399822   2498.487854  22220.679916      0.026095                    
P 19  -9758.715058  17053.792371  17483.849407   -489.572937                    
V 19  -4989.741557 -22214.511048  19140.216822     -0.016955                    
P 20   -827.557981  16186.552975 -21249.482503    260.200707                    
V 20 -26069.800858  -5541.318470  -3165.886939      0.041581                    
P 21  -8194.198947 -14243.613024  21484.198169   -396.640938                    
V 21  19116.529887 -17523.963897  -4886.341030     -0.020533                    
P 22 -24458.381736  -9957.017849   3807.525257    290.248801                    
V 22   5441.387374  -2375.855131  30290.152511      0.039353                    
P 23   -259.590461  24988.524738  -8209.879496    -69.713942                    
V 23  -5607.787283  -9727.144448 -29392.110284     -0.027686                    
P 24  13035.196735 -21330.901983  -8809.515956    -38.979812                    
V 24  10018.956082  -5768.839088  28966.775572     -0.005863                    
P 25  -7093.827125 -16161.984651 -19970.731071     12.705434                    
V 25  24307.232509   6303.416151 -13651.828691     -0.018577                    
P 26  12787.442024  -9555.228168  20515.454218   -134.280699                    
V 26   4655.231608  27225.178266   9747.225012     -0.131156                    
P 27 -13767.959628   6797.515275  21652.581304     32.285598                    
V 27  -6809.713607 -26663.230773   4110.895850      0.027782                    
P 28  21374.214760  13862.562835   8342.596760    400.693956                    
V 28  -9623.893240  -1897.047560  29939.793833      0.026967                    
P 29  -4660.674327 -26166.809622   -167.373406    575.354374                    
V 29   2453.973749   -197.710767 -31968.324632      0.024256                    
P 30  11728.353593  10070.212539  21603.093000    -82.094106                    
V 30 -21143.853333  17484.079200   3281.274090     -0.019980                    
P 31 -19755.591697   1549.468619 -17691.216558    328.512023                    
V 31  16094.479267 -15919.341897 -18885.932728     -0.006089                    
P 32 -15783.025060   8724.246739 -19304.475543   -286.220613                    
V 32 -22422.453022 -10642.064232  14059.641318      0.089145                    
EOF
